OBJECT_NAME,OBJECT_ID,EPOCH,MEAN_MOTION,ECCENTRICITY,INCLINATION,RA_OF_ASC_NODE,ARG_OF_PERICENTER,MEAN_ANOMALY,EPHEMERIS_TYPE,CLASSIFICATION_TYPE,NORAD_CAT_ID,ELEMENT_SET_NO,REV_AT_EPOCH,BSTAR,MEAN_MOTION_DOT,MEAN_MOTION_DDOT
ONEWEB-0667,2023-029AH,2026-07-18T03:55:40.553184,13.20772630,.00020113,87.9186,268.2595,103.1571,256.9787,0,U,55827,999,16523,-.13058241E-3,-.4E-6,0
ONEWEB-0669,2023-029AJ,2026-07-18T03:48:24.692832,13.20770202,.00015853,87.9183,268.2696,87.7903,272.3412,0,U,55828,999,16523,.45078093E-3,.196E-5,0
ONEWEB-0670,2023-029AK,2026-07-18T04:36:49.277664,13.14501844,.00016885,87.8952,283.5605,108.0553,252.0761,0,U,55829,999,16350,-.24036641E-3,-.76E-6,0
ONEWEB-0671,2023-029AL,2026-07-18T05:22:51.016512,13.19726829,.00019764,87.9185,298.7956,105.5623,254.5728,0,U,55830,999,16299,.33697756E-3,.148E-5,0
ONEWEB-0672,2023-029AM,2026-07-18T03:41:09.722400,13.20748657,.0001971,87.9180,268.2644,91.8590,268.2769,0,U,55831,999,16523,.10856321E-1,.4428E-4,0
ONEWEB-0673,2023-029AN,2026-07-18T06:39:02.875968,13.19725421,.00019422,87.9191,298.7787,105.0541,255.0807,0,U,55832,999,16300,.11502861E-3,.59E-6,0
ONEWEB-0674,2023-029AP,2026-07-18T03:51:08.462304,13.14501478,.00016803,87.8961,283.5440,106.2411,253.8903,0,U,55833,999,16348,.44925718E-3,.179E-5,0
ONEWEB-0675,2023-029AQ,2026-07-18T05:11:29.660928,13.19724983,.0002242,87.9187,298.7986,95.8024,264.3365,0,U,55834,999,16301,.27212957E-3,.122E-5,0
ONEWEB-0720,2023-029AR,2026-07-18T05:00:06.613632,13.19727190,.00022188,87.9184,298.7996,106.8589,253.2787,0,U,55835,999,16293,.24761044E-3,.112E-5,0
ONEWEB-0537,2023-043A,2026-07-18T03:00:31.708800,13.16593832,.00021724,87.9077,222.6259,88.7161,271.4219,0,U,56046,999,16303,.17917252E-3,.81E-6,0
ONEWEB-0538,2023-043B,2026-07-18T02:51:24.239520,13.16594083,.00023345,87.9078,222.6298,93.1015,267.0383,0,U,56047,999,16304,.114819E-3,.57E-6,0
ONEWEB-0546,2023-043C,2026-07-18T02:33:09.888480,13.16594006,.00022307,87.9078,222.6324,74.8724,285.2654,0,U,56048,999,16303,-.54681315E-4,-.8E-7,0
ONEWEB-0547,2023-043D,2026-07-18T03:10:26.309280,13.21826540,.00022744,87.9234,237.8164,98.4212,261.7180,0,U,56049,999,16231,-.11370129E-3,-.34E-6,0
ONEWEB-0548,2023-043E,2026-07-18T03:08:29.267520,13.16594652,.00015934,87.9078,222.6230,94.6947,265.4365,0,U,56050,999,16303,-.18762335E-3,-.59E-6,0
ONEWEB-0549,2023-043F,2026-07-18T03:01:57.916128,13.21827769,.00025028,87.9231,237.8222,95.7178,264.4241,0,U,56051,999,16231,.31867378E-3,.145E-5,0
ONEWEB-0550,2023-043G,2026-07-18T04:31:36.352416,13.21826721,.00019089,87.9231,237.8081,98.6672,261.4678,0,U,56052,999,16232,-.26939323E-4,.2E-7,0
ONEWEB-0551,2023-043H,2026-07-18T04:28:44.908032,13.15547360,.00024518,87.8978,253.0495,100.5313,259.6093,0,U,56053,999,16047,-.15334286E-3,-.45E-6,0
ONEWEB-0552,2023-043J,2026-07-18T04:24:19.350720,13.21826064,.00021159,87.9231,237.8134,102.4288,257.7083,0,U,56054,999,16232,.46936514E-4,.32E-6,0
ONEWEB-0553,2023-043K,2026-07-18T02:42:17.017344,13.16594025,.00019918,87.9074,222.6312,82.7954,277.3403,0,U,56055,999,16304,.11574998E-4,.17E-6,0
ONEWEB-0554,2023-043L,2026-07-18T02:24:02.844288,13.16594029,.00015447,87.9075,222.6423,94.8691,265.2616,0,U,56056,999,16302,-.14273317E-3,-.42E-6,0
ONEWEB-0555,2023-043M,2026-07-18T06:57:37.663200,13.16594126,.00021155,87.9078,222.5935,78.0020,282.1348,0,U,56057,999,16305,.27702789E-3,.119E-5,0
ONEWEB-0557,2023-043N,2026-07-18T07:18:08.803584,13.16594212,.0001175,87.9080,222.6003,62.6902,297.4348,0,U,56058,999,16305,.35286953E-3,.148E-5,0
ONEWEB-0558,2023-043P,2026-07-18T04:14:38.664960,13.21826063,.00023694,87.9234,237.8108,93.9383,266.2022,0,U,56059,999,16233,-.21352319E-3,-.75E-6,0
ONEWEB-0559,2023-043Q,2026-07-18T03:57:41.650560,13.21823821,.00022691,87.9234,237.8086,101.2827,258.8562,0,U,56060,999,16234,-.22607038E-3,-.8E-6,0
ONEWEB-0566,2023-043R,2026-07-18T03:48:00.379008,13.21824112,.00023362,87.9231,237.8081,101.2524,258.8872,0,U,56061,999,16232,.45574594E-4,.32E-6,0
ONEWEB-0568,2023-043S,2026-07-18T02:14:54.789216,13.16596249,.00020945,87.9075,222.6316,85.3512,274.7858,0,U,56062,999,16304,-.14917724E-3,-.44E-6,0
ONEWEB-0574,2023-043T,2026-07-18T03:38:19.869504,13.21825728,.00018991,87.9239,237.8142,93.7528,266.3823,0,U,56063,999,16236,-.7209127E-5,.1E-6,0
ONEWEB-0575,2023-043U,2026-07-18T02:05:47.205888,13.16596555,.00017133,87.9078,222.6291,84.5814,275.5512,0,U,56064,999,16303,.40741847E-4,.28E-6,0
ONEWEB-0576,2023-043V,2026-07-18T01:38:25.211904,13.16596086,.00019032,87.9083,222.6416,90.2801,269.8548,0,U,56065,999,16302,.29183763E-3,.124E-5,0
ONEWEB-0577,2023-043W,2026-07-18T01:47:33.138240,13.16595806,.00013278,87.9081,222.6378,85.8986,274.2296,0,U,56066,999,16305,.67394308E-4,.39E-6,0
