ONEWEB-0667             
1 55827U 23029AH  26199.16366381 -.00000040  00000+0 -13058-3 0  9999
2 55827  87.9186 268.2595 0002011 103.1571 256.9787 13.20772630165239
ONEWEB-0669             
1 55828U 23029AJ  26199.15861913  .00000196  00000+0  45078-3 0  9997
2 55828  87.9183 268.2696 0001585  87.7903 272.3412 13.20770202165230
ONEWEB-0670             
1 55829U 23029AK  26199.19223701 -.00000076  00000+0 -24037-3 0  9990
2 55829  87.8952 283.5605 0001688 108.0553 252.0761 13.14501844163503
ONEWEB-0671             
1 55830U 23029AL  26199.22420158  .00000148  00000+0  33698-3 0  9992
2 55830  87.9185 298.7956 0001976 105.5623 254.5728 13.19726829162990
ONEWEB-0672             
1 55831U 23029AM  26199.15358475  .00004428  00000+0  10856-1 0  9991
2 55831  87.9180 268.2644 0001971  91.8590 268.2769 13.20748657165239
ONEWEB-0673             
1 55832U 23029AN  26199.27711662  .00000059  00000+0  11503-3 0  9994
2 55832  87.9191 298.7787 0001942 105.0541 255.0807 13.19725421163002
ONEWEB-0674             
1 55833U 23029AP  26199.16051461  .00000179  00000+0  44926-3 0  9995
2 55833  87.8961 283.5440 0001680 106.2411 253.8903 13.14501478163487
ONEWEB-0675             
1 55834U 23029AQ  26199.21631552  .00000122  00000+0  27213-3 0  9995
2 55834  87.9187 298.7986 0002242  95.8024 264.3365 13.19724983163011
ONEWEB-0720             
1 55835U 23029AR  26199.20840988  .00000112  00000+0  24761-3 0  9994
2 55835  87.9184 298.7996 0002218 106.8589 253.2787 13.19727190162930
ONEWEB-0537             
1 56046U 23043A   26199.12536700  .00000081  00000+0  17917-3 0  9990
2 56046  87.9077 222.6259 0002172  88.7161 271.4219 13.16593832163032
ONEWEB-0538             
1 56047U 23043B   26199.11903055  .00000057  00000+0  11482-3 0  9995
2 56047  87.9078 222.6298 0002334  93.1015 267.0383 13.16594083163048
ONEWEB-0546             
1 56048U 23043C   26199.10636445 -.00000008  00000+0 -54681-4 0  9998
2 56048  87.9078 222.6324 0002230  74.8724 285.2654 13.16594006163034
ONEWEB-0547             
1 56049U 23043D   26199.13224895 -.00000034  00000+0 -11370-3 0  9990
2 56049  87.9234 237.8164 0002274  98.4212 261.7180 13.21826540162311
ONEWEB-0548             
1 56050U 23043E   26199.13089430 -.00000059  00000+0 -18762-3 0  9995
2 56050  87.9078 222.6230 0001593  94.6947 265.4365 13.16594652163037
ONEWEB-0549             
1 56051U 23043F   26199.12636477  .00000145  00000+0  31867-3 0  9999
2 56051  87.9231 237.8222 0002502  95.7178 264.4241 13.21827769162313
ONEWEB-0550             
1 56052U 23043G   26199.18861519  .00000002  00000+0 -26939-4 0  9991
2 56052  87.9231 237.8081 0001908  98.6672 261.4678 13.21826721162326
ONEWEB-0551             
1 56053U 23043H   26199.18663088 -.00000045  00000+0 -15334-3 0  9997
2 56053  87.8978 253.0495 0002451 100.5313 259.6093 13.15547360160478
ONEWEB-0552             
1 56054U 23043J   26199.18355730  .00000032  00000+0  46937-4 0  9998
2 56054  87.9231 237.8134 0002115 102.4288 257.7083 13.21826064162323
ONEWEB-0553             
1 56055U 23043K   26199.11269696  .00000017  00000+0  11575-4 0  9990
2 56055  87.9074 222.6312 0001991  82.7954 277.3403 13.16594025163047
ONEWEB-0554             
1 56056U 23043L   26199.10003292 -.00000042  00000+0 -14273-3 0  9995
2 56056  87.9075 222.6423 0001544  94.8691 265.2616 13.16594029163022
ONEWEB-0555             
1 56057U 23043M   26199.29001925  .00000119  00000+0  27703-3 0  9992
2 56057  87.9078 222.5935 0002115  78.0020 282.1348 13.16594126163059
ONEWEB-0557             
1 56058U 23043N   26199.30426856  .00000148  00000+0  35287-3 0  9997
2 56058  87.9080 222.6003 0001175  62.6902 297.4348 13.16594212163058
ONEWEB-0558             
1 56059U 23043P   26199.17683640 -.00000075  00000+0 -21352-3 0  9998
2 56059  87.9234 237.8108 0002369  93.9383 266.2022 13.21826063162331
ONEWEB-0559             
1 56060U 23043Q   26199.16506540 -.00000080  00000+0 -22607-3 0  9992
2 56060  87.9234 237.8086 0002269 101.2827 258.8562 13.21823821162349
ONEWEB-0566             
1 56061U 23043R   26199.15833772  .00000032  00000+0  45575-4 0  9997
2 56061  87.9231 237.8081 0002336 101.2524 258.8872 13.21824112162327
ONEWEB-0568             
1 56062U 23043S   26199.09368969 -.00000044  00000+0 -14918-3 0  9993
2 56062  87.9075 222.6316 0002094  85.3512 274.7858 13.16596249163049
ONEWEB-0574             
1 56063U 23043T   26199.15161886  .00000010  00000+0 -72091-5 0  9990
2 56063  87.9239 237.8142 0001899  93.7528 266.3823 13.21825728162365
ONEWEB-0575             
1 56064U 23043U   26199.08735192  .00000028  00000+0  40742-4 0  9995
2 56064  87.9078 222.6291 0001713  84.5814 275.5512 13.16596555163034
ONEWEB-0576             
1 56065U 23043V   26199.06834736  .00000124  00000+0  29184-3 0  9991
2 56065  87.9083 222.6416 0001903  90.2801 269.8548 13.16596086163024
ONEWEB-0577             
1 56066U 23043W   26199.07468910  .00000039  00000+0  67394-4 0  9991
2 56066  87.9081 222.6378 0001327  85.8986 274.2296 13.16595806163056
